FLOCK 4G-22             
1 62645U 25009AN  26094.76245274  .00016792  00000+0  61873-3 0  9999
2 62645  97.4021 177.2132 0002880 164.8868 195.2458 15.27889516 67706
FLOCK 4G-25             
1 62646U 25009AP  26094.81451609  .00013630  00000+0  50021-3 0  9998
2 62646  97.4023 177.3049 0002285 166.2818 193.8484 15.28068890 67716
FLOCK 4G-23             
1 62647U 25009AQ  26094.72255098  .00013637  00000+0  50343-3 0  9997
2 62647  97.3951 176.7460 0001814 178.7720 181.3524 15.27874815 67698
FLOCK 4G-34             
1 62650U 25009AT  26094.80526730  .00015464  00000+0  57136-3 0  9991
2 62650  97.3977 176.8825 0002205 162.6271 197.5045 15.27816947 67705
FLOCK 4G-21             
1 62651U 25009AU  26094.77008451  .00017102  00000+0  60684-3 0  9996
2 62651  97.4006 177.5548 0002125 166.9017 193.2278 15.29124724 67737
FLOCK 4G-31             
1 62652U 25009AV  26094.75757590  .00016832  00000+0  62442-3 0  9993
2 62652  97.3981 176.8281 0001664 160.3357 199.7947 15.27666276 67697
FLOCK 4G-4              
1 62659U 25009BC  26094.76697551  .00016142  00000+0  60281-3 0  9994
2 62659  97.3967 176.5885 0002198 187.9708 172.1497 15.27454713125290
FLOCK 4G-6              
1 62660U 25009BD  26094.77825483  .00017647  00000+0  64432-3 0  9997
2 62660  97.3957 176.6631 0002775 206.1004 154.0096 15.28179634125285
FLOCK 4G-2              
1 62661U 25009BE  26094.66008510  .00017784  00000+0  64452-3 0  9994
2 62661  97.4023 177.0541 0003695 205.4665 154.6393 15.28418438125298
FLOCK 4G-5              
1 62663U 25009BG  26094.76584693  .00014114  00000+0  49933-3 0  9999
2 62663  97.4038 177.4310 0003345 182.9089 177.2132 15.29263513 67712
FLOCK 4G-1              
1 62666U 25009BK  26094.76192607  .00017484  00000+0  63846-3 0  9994
2 62666  97.4035 177.1469 0003931 203.9697 156.1360 15.28173183 67692
FLOCK 4G-14             
1 62667U 25009BL  26094.76593045  .00016100  00000+0  59463-3 0  9990
2 62667  97.4037 177.0084 0004206 195.7779 164.3330 15.27815737 67686
FLOCK 4G-10             
1 62670U 25009BP  26094.78109804  .00016548  00000+0  61057-3 0  9990
2 62670  97.3937 176.4449 0003797 214.9818 145.1173 15.27844079125327
FLOCK 4G-36             
1 62675U 25009BU  26094.77878205  .00017072  00000+0  62783-3 0  9992
2 62675  97.4024 176.9396 0004278 202.5957 157.5094 15.27944952 67682
FLOCK 4G-15             
1 62678U 25009BX  26094.78867351  .00015973  00000+0  58725-3 0  9995
2 62678  97.4026 177.0824 0004560 199.7270 160.3794 15.27967243125338
FLOCK 4G-30             
1 62679U 25009BY  26094.77947220  .00015431  00000+0  56731-3 0  9993
2 62679  97.3936 176.4607 0003956 219.2824 140.8129 15.27977671125321
