[{"OBJECT_NAME":"FLOCK 4G-22","OBJECT_ID":"2025-009AN","EPOCH":"2026-04-04T18:17:55.916736","MEAN_MOTION":15.27889516,"ECCENTRICITY":0.000288,"INCLINATION":97.4021,"RA_OF_ASC_NODE":177.2132,"ARG_OF_PERICENTER":164.8868,"MEAN_ANOMALY":195.2458,"EPHEMERIS_TYPE":0,"CLASSIFICATION_TYPE":"U","NORAD_CAT_ID":62645,"ELEMENT_SET_NO":999,"REV_AT_EPOCH":6770,"BSTAR":0.00061873,"MEAN_MOTION_DOT":0.00016792,"MEAN_MOTION_DDOT":0},{"OBJECT_NAME":"FLOCK 4G-25","OBJECT_ID":"2025-009AP","EPOCH":"2026-04-04T19:32:54.190176","MEAN_MOTION":15.2806889,"ECCENTRICITY":0.0002285,"INCLINATION":97.4023,"RA_OF_ASC_NODE":177.3049,"ARG_OF_PERICENTER":166.2818,"MEAN_ANOMALY":193.8484,"EPHEMERIS_TYPE":0,"CLASSIFICATION_TYPE":"U","NORAD_CAT_ID":62646,"ELEMENT_SET_NO":999,"REV_AT_EPOCH":6771,"BSTAR":0.00050021,"MEAN_MOTION_DOT":0.0001363,"MEAN_MOTION_DDOT":0},{"OBJECT_NAME":"FLOCK 4G-23","OBJECT_ID":"2025-009AQ","EPOCH":"2026-04-04T17:20:28.404672","MEAN_MOTION":15.27874815,"ECCENTRICITY":0.0001814,"INCLINATION":97.3951,"RA_OF_ASC_NODE":176.746,"ARG_OF_PERICENTER":178.772,"MEAN_ANOMALY":181.3524,"EPHEMERIS_TYPE":0,"CLASSIFICATION_TYPE":"U","NORAD_CAT_ID":62647,"ELEMENT_SET_NO":999,"REV_AT_EPOCH":6769,"BSTAR":0.00050343,"MEAN_MOTION_DOT":0.00013637,"MEAN_MOTION_DDOT":0},{"OBJECT_NAME":"FLOCK 4G-34","OBJECT_ID":"2025-009AT","EPOCH":"2026-04-04T19:19:35.094720","MEAN_MOTION":15.27816947,"ECCENTRICITY":0.0002205,"INCLINATION":97.3977,"RA_OF_ASC_NODE":176.8825,"ARG_OF_PERICENTER":162.6271,"MEAN_ANOMALY":197.5045,"EPHEMERIS_TYPE":0,"CLASSIFICATION_TYPE":"U","NORAD_CAT_ID":62650,"ELEMENT_SET_NO":999,"REV_AT_EPOCH":6770,"BSTAR":0.00057136,"MEAN_MOTION_DOT":0.00015464,"MEAN_MOTION_DDOT":0},{"OBJECT_NAME":"FLOCK 4G-21","OBJECT_ID":"2025-009AU","EPOCH":"2026-04-04T18:28:55.301664","MEAN_MOTION":15.29124724,"ECCENTRICITY":0.0002125,"INCLINATION":97.4006,"RA_OF_ASC_NODE":177.5548,"ARG_OF_PERICENTER":166.9017,"MEAN_ANOMALY":193.2278,"EPHEMERIS_TYPE":0,"CLASSIFICATION_TYPE":"U","NORAD_CAT_ID":62651,"ELEMENT_SET_NO":999,"REV_AT_EPOCH":6773,"BSTAR":0.00060684,"MEAN_MOTION_DOT":0.00017102,"MEAN_MOTION_DDOT":0},{"OBJECT_NAME":"FLOCK 4G-31","OBJECT_ID":"2025-009AV","EPOCH":"2026-04-04T18:10:54.557760","MEAN_MOTION":15.27666276,"ECCENTRICITY":0.0001664,"INCLINATION":97.3981,"RA_OF_ASC_NODE":176.8281,"ARG_OF_PERICENTER":160.3357,"MEAN_ANOMALY":199.7947,"EPHEMERIS_TYPE":0,"CLASSIFICATION_TYPE":"U","NORAD_CAT_ID":62652,"ELEMENT_SET_NO":999,"REV_AT_EPOCH":6769,"BSTAR":0.00062442,"MEAN_MOTION_DOT":0.00016832,"MEAN_MOTION_DDOT":0},{"OBJECT_NAME":"FLOCK 4G-4","OBJECT_ID":"2025-009BC","EPOCH":"2026-04-04T18:24:26.684064","MEAN_MOTION":15.27454713,"ECCENTRICITY":0.0002198,"INCLINATION":97.3967,"RA_OF_ASC_NODE":176.5885,"ARG_OF_PERICENTER":187.9708,"MEAN_ANOMALY":172.1497,"EPHEMERIS_TYPE":0,"CLASSIFICATION_TYPE":"U","NORAD_CAT_ID":62659,"ELEMENT_SET_NO":999,"REV_AT_EPOCH":12529,"BSTAR":0.00060281,"MEAN_MOTION_DOT":0.00016142,"MEAN_MOTION_DDOT":0},{"OBJECT_NAME":"FLOCK 4G-6","OBJECT_ID":"2025-009BD","EPOCH":"2026-04-04T18:40:41.217312","MEAN_MOTION":15.28179634,"ECCENTRICITY":0.0002775,"INCLINATION":97.3957,"RA_OF_ASC_NODE":176.6631,"ARG_OF_PERICENTER":206.1004,"MEAN_ANOMALY":154.0096,"EPHEMERIS_TYPE":0,"CLASSIFICATION_TYPE":"U","NORAD_CAT_ID":62660,"ELEMENT_SET_NO":999,"REV_AT_EPOCH":12528,"BSTAR":0.00064432,"MEAN_MOTION_DOT":0.00017647,"MEAN_MOTION_DDOT":0},{"OBJECT_NAME":"FLOCK 4G-2","OBJECT_ID":"2025-009BE","EPOCH":"2026-04-04T15:50:31.352640","MEAN_MOTION":15.28418438,"ECCENTRICITY":0.0003695,"INCLINATION":97.4023,"RA_OF_ASC_NODE":177.0541,"ARG_OF_PERICENTER":205.4665,"MEAN_ANOMALY":154.6393,"EPHEMERIS_TYPE":0,"CLASSIFICATION_TYPE":"U","NORAD_CAT_ID":62661,"ELEMENT_SET_NO":999,"REV_AT_EPOCH":12529,"BSTAR":0.00064452,"MEAN_MOTION_DOT":0.00017784,"MEAN_MOTION_DDOT":0},{"OBJECT_NAME":"FLOCK 4G-5","OBJECT_ID":"2025-009BG","EPOCH":"2026-04-04T18:22:49.174752","MEAN_MOTION":15.29263513,"ECCENTRICITY":0.0003345,"INCLINATION":97.4038,"RA_OF_ASC_NODE":177.431,"ARG_OF_PERICENTER":182.9089,"MEAN_ANOMALY":177.2132,"EPHEMERIS_TYPE":0,"CLASSIFICATION_TYPE":"U","NORAD_CAT_ID":62663,"ELEMENT_SET_NO":999,"REV_AT_EPOCH":6771,"BSTAR":0.00049933,"MEAN_MOTION_DOT":0.00014114,"MEAN_MOTION_DDOT":0},{"OBJECT_NAME":"FLOCK 4G-1","OBJECT_ID":"2025-009BK","EPOCH":"2026-04-04T18:17:10.412448","MEAN_MOTION":15.28173183,"ECCENTRICITY":0.0003931,"INCLINATION":97.4035,"RA_OF_ASC_NODE":177.1469,"ARG_OF_PERICENTER":203.9697,"MEAN_ANOMALY":156.136,"EPHEMERIS_TYPE":0,"CLASSIFICATION_TYPE":"U","NORAD_CAT_ID":62666,"ELEMENT_SET_NO":999,"REV_AT_EPOCH":6769,"BSTAR":0.00063846,"MEAN_MOTION_DOT":0.00017484,"MEAN_MOTION_DDOT":0},{"OBJECT_NAME":"FLOCK 4G-14","OBJECT_ID":"2025-009BL","EPOCH":"2026-04-04T18:22:56.390880","MEAN_MOTION":15.27815737,"ECCENTRICITY":0.0004206,"INCLINATION":97.4037,"RA_OF_ASC_NODE":177.0084,"ARG_OF_PERICENTER":195.7779,"MEAN_ANOMALY":164.333,"EPHEMERIS_TYPE":0,"CLASSIFICATION_TYPE":"U","NORAD_CAT_ID":62667,"ELEMENT_SET_NO":999,"REV_AT_EPOCH":6768,"BSTAR":0.00059463,"MEAN_MOTION_DOT":0.000161,"MEAN_MOTION_DDOT":0},{"OBJECT_NAME":"FLOCK 4G-10","OBJECT_ID":"2025-009BP","EPOCH":"2026-04-04T18:44:46.870656","MEAN_MOTION":15.27844079,"ECCENTRICITY":0.0003797,"INCLINATION":97.3937,"RA_OF_ASC_NODE":176.4449,"ARG_OF_PERICENTER":214.9818,"MEAN_ANOMALY":145.1173,"EPHEMERIS_TYPE":0,"CLASSIFICATION_TYPE":"U","NORAD_CAT_ID":62670,"ELEMENT_SET_NO":999,"REV_AT_EPOCH":12532,"BSTAR":0.00061057,"MEAN_MOTION_DOT":0.00016548,"MEAN_MOTION_DDOT":0},{"OBJECT_NAME":"FLOCK 4G-36","OBJECT_ID":"2025-009BU","EPOCH":"2026-04-04T18:41:26.769120","MEAN_MOTION":15.27944952,"ECCENTRICITY":0.0004278,"INCLINATION":97.4024,"RA_OF_ASC_NODE":176.9396,"ARG_OF_PERICENTER":202.5957,"MEAN_ANOMALY":157.5094,"EPHEMERIS_TYPE":0,"CLASSIFICATION_TYPE":"U","NORAD_CAT_ID":62675,"ELEMENT_SET_NO":999,"REV_AT_EPOCH":6768,"BSTAR":0.00062783,"MEAN_MOTION_DOT":0.00017072,"MEAN_MOTION_DDOT":0},{"OBJECT_NAME":"FLOCK 4G-15","OBJECT_ID":"2025-009BX","EPOCH":"2026-04-04T18:55:41.391264","MEAN_MOTION":15.27967243,"ECCENTRICITY":0.000456,"INCLINATION":97.4026,"RA_OF_ASC_NODE":177.0824,"ARG_OF_PERICENTER":199.727,"MEAN_ANOMALY":160.3794,"EPHEMERIS_TYPE":0,"CLASSIFICATION_TYPE":"U","NORAD_CAT_ID":62678,"ELEMENT_SET_NO":999,"REV_AT_EPOCH":12533,"BSTAR":0.00058725,"MEAN_MOTION_DOT":0.00015973,"MEAN_MOTION_DDOT":0},{"OBJECT_NAME":"FLOCK 4G-30","OBJECT_ID":"2025-009BY","EPOCH":"2026-04-04T18:42:26.398080","MEAN_MOTION":15.27977671,"ECCENTRICITY":0.0003956,"INCLINATION":97.3936,"RA_OF_ASC_NODE":176.4607,"ARG_OF_PERICENTER":219.2824,"MEAN_ANOMALY":140.8129,"EPHEMERIS_TYPE":0,"CLASSIFICATION_TYPE":"U","NORAD_CAT_ID":62679,"ELEMENT_SET_NO":999,"REV_AT_EPOCH":12532,"BSTAR":0.00056731,"MEAN_MOTION_DOT":0.00015431,"MEAN_MOTION_DDOT":0}]
